[{"OBJECT_NAME":"OBJECT L","OBJECT_ID":"2024-205L","EPOCH":"2026-03-07T03:22:40.585728","MEAN_MOTION":15.10822925,"ECCENTRICITY":0.00547724,"INCLINATION":97.4213,"RA_OF_ASC_NODE":140.2188,"ARG_OF_PERICENTER":346.2042,"MEAN_ANOMALY":13.7688,"EPHEMERIS_TYPE":0,"CLASSIFICATION_TYPE":"U","NORAD_CAT_ID":61904,"ELEMENT_SET_NO":999,"REV_AT_EPOCH":7282,"BSTAR":0.00079283043,"MEAN_MOTION_DOT":0.00013606,"MEAN_MOTION_DDOT":0},{"OBJECT_NAME":"TRANSPORTER-13 OBJECT M","OBJECT_ID":"2025-052M","EPOCH":"2026-03-09T16:54:10.026144","MEAN_MOTION":15.21138155,"ECCENTRICITY":0.00049134,"INCLINATION":97.4005,"RA_OF_ASC_NODE":322.6064,"ARG_OF_PERICENTER":116.6212,"MEAN_ANOMALY":243.5528,"EPHEMERIS_TYPE":0,"CLASSIFICATION_TYPE":"U","NORAD_CAT_ID":63221,"ELEMENT_SET_NO":999,"REV_AT_EPOCH":5471,"BSTAR":0.00025482264,"MEAN_MOTION_DOT":5.606e-5,"MEAN_MOTION_DDOT":0}]
